NOAA 1 [-]              
1 04793U 70106A   17122.63002785 -.00000052  00000-0 -38652-4 0  9998
2 04793 101.8050 187.9332 0031534 346.2274 138.9112 12.53980234122969
NOAA 2 [-]              
1 06235U 72082A   17122.51253427  .00000000  00000-0  28302-3 0  9995
2 06235 101.6774  88.3795 0004449  75.8566  62.2031 12.53092034 37724
NOAA 3 [-]              
1 06920U 73086A   17122.52828201 -.00000073  00000-0 -21456-3 0  9995
2 06920 101.9357  92.9824 0006587 158.2652 318.4087 12.40353675968880
NOAA 4 [-]              
1 07529U 74089A   17122.50585495 -.00000019  00000-0  16081-3 0  9995
2 07529 101.6359  92.2478 0009216 107.6119   0.1837 12.53110047942317
NOAA 5 [-]              
1 09057U 76077A   17122.58436142 -.00000047  00000-0 -29659-4 0  9992
2 09057 101.8258 106.0591 0010005  16.4534  93.7066 12.37764634842131
TIROS N [P]             
1 11060U 78096A   17122.19188646  .00000001  00000-0  22588-4 0  9994
2 11060  98.8992 172.0783 0011737 111.2749 248.9680 14.18154557206463
NOAA 6 [P]              
1 11416U 79057A   17122.53337204  .00000058  00000-0  36958-4 0  9999
2 11416  98.5765 110.8426 0010945  29.6141 330.5661 14.33414144973539
NOAA 7 [-]              
1 12553U 81059A   17122.56979524  .00000010  00000-0  27807-4 0  9998
2 12553  99.0478 103.4805 0012038  31.2693  76.1505 14.17215497852879
NOAA 8 [-]              
1 13923U 83022A   17122.55187199  .00000042  00000-0  33775-4 0  9996
2 13923  98.5105 113.7817 0014210 299.8758  60.1012 14.28583418775375
NOAA 9 [P]              
1 15427U 84123A   17122.48346255  .00000035  00000-0  39716-4 0  9995
2 15427  98.7998  67.0009 0015973  90.2206  18.7791 14.15997167671903
NOAA 10 [-]             
1 16969U 86073A   17122.56911251  .00000004  00000-0  18551-4 0  9996
2 16969  98.4621 132.6184 0013147  53.8820  54.8815 14.28006235593920
NOAA 11 [-]             
1 19531U 88089A   17122.59045668 -.00000018  00000-0  12459-4 0  9993
2 19531  98.5556 182.9175 0011572 163.6108 196.5442 14.15207343476056
NOAA 12 [-]             
1 21263U 91032A   17122.54419198 -.00000016  00000-0  11392-4 0  9991
2 21263  98.5672 147.6040 0014768  58.1700 302.0916 14.25840813350221
NOAA 13 [-]             
1 22739U 93050A   17122.56748653  .00000002  00000-0  23503-4 0  9996
2 22739  98.5647 173.3062 0008502 309.2974  50.7444 14.12681753222755
NOAA 14 [-]             
1 23455U 94089A   17122.39848391 -.00000028  00000-0  78533-5 0  9999
2 23455  98.6886 198.6212 0008362 288.6160  71.4105 14.14096622152365
NOAA 15 [B]             
1 25338U 98030A   17122.60057835  .00000036  00000-0  34141-4 0  9994
2 25338  98.7835 133.4174 0010162 345.5132  14.5755 14.25789484986247
NOAA 16 [-]             
1 26536U 00055A   17122.40427375 -.00000002  00000-0  22497-4 0  9998
2 26536  98.8582 195.6343 0011676  92.2544 267.9965 14.13175206856443
NOAA 17 [-]             
1 27453U 02032A   17122.55218471  .00000008  00000-0  21359-4 0  9996
2 27453  98.4300  88.8339 0011301 339.5267  20.5459 14.24984097772253
NOAA 18 [B]             
1 28654U 05018A   17122.57284716  .00000011  00000-0  31613-4 0  9992
2 28654  99.1857 143.6655 0014096 195.4970 164.5770 14.12335206615729
NOAA 19 [+]             
1 33591U 09005A   17122.49885674  .00000091  00000-0  74241-4 0  9991
2 33591  99.0885  88.6858 0014778  43.8551 316.3791 14.12175904424215
NPP [+]                 
1 37849U 11061A   17122.49551823  .00000011  00000-0  25782-4 0  9990
2 37849  98.7327  61.8364 0000465  69.8618  61.9401 14.19546675285611
